$$SOE
2460147.500000000, A.D. 2023-Jul-22 00:00:00.0000, 3.636943105238386E+08, -3.053047856854731E+08, -1.323157141523299E+08,
2460154.500000000, A.D. 2023-Jul-29 00:00:00.0000, 3.701124525669132E+08, -2.979654801202939E+08, -1.333488958748212E+08,
2460161.500000000, A.D. 2023-Aug-05 00:00:00.0000, 3.763810749470747E+08, -2.905057848788031E+08, -1.343282043190168E+08,
2460168.500000000, A.D. 2023-Aug-12 00:00:00.0000, 3.824981580025442E+08, -2.829291111232982E+08, -1.352534272677711E+08,
2460175.500000000, A.D. 2023-Aug-19 00:00:00.0000, 3.884617526821570E+08, -2.752388913596207E+08, -1.361243742202755E+08,
2460182.500000000, A.D. 2023-Aug-26 00:00:00.0000, 3.942699802387761E+08, -2.674385778853714E+08, -1.369408761528208E+08,
2460189.500000000, A.D. 2023-Sep-02 00:00:00.0000, 3.999210318760382E+08, -2.595316413448909E+08, -1.377027852804243E+08,
2460196.500000000, A.D. 2023-Sep-09 00:00:00.0000, 4.054131683871690E+08, -2.515215694308961E+08, -1.384099748263180E+08,
2460203.500000000, A.D. 2023-Sep-16 00:00:00.0000, 4.107447199566664E+08, -2.434118657898485E+08, -1.390623388201236E+08,
2460210.500000000, A.D. 2023-Sep-23 00:00:00.0000, 4.159140865438651E+08, -2.352060488436504E+08, -1.396597919403591E+08,
2460217.500000000, A.D. 2023-Sep-30 00:00:00.0000, 4.209197385118820E+08, -2.269076493371198E+08, -1.402022692740571E+08,
2460224.500000000, A.D. 2023-Oct-07 00:00:00.0000, 4.257602151507190E+08, -2.185202071554070E+08, -1.406897258231737E+08,
2460231.500000000, A.D. 2023-Oct-14 00:00:00.0000, 4.304341221349176E+08, -2.100472707253319E+08, -1.411221361241600E+08,
2460238.500000000, A.D. 2023-Oct-21 00:00:00.0000, 4.349401311442958E+08, -2.014923973970086E+08, -1.414994941453842E+08,
2460245.500000000, A.D. 2023-Oct-28 00:00:00.0000, 4.392769802244354E+08, -1.928591525445472E+08, -1.418218131468701E+08,
2460252.500000000, A.D. 2023-Nov-04 00:00:00.0000, 4.434434736382182E+08, -1.841511081555839E+08, -1.420891254506593E+08,
2460259.500000000, A.D. 2023-Nov-11 00:00:00.0000, 4.474384813870876E+08, -1.753718415088795E+08, -1.423014821870327E+08,
2460266.500000000, A.D. 2023-Nov-18 00:00:00.0000, 4.512609386225477E+08, -1.665249340035408E+08, -1.424589530418827E+08,
2460273.500000000, A.D. 2023-Nov-25 00:00:00.0000, 4.549098450217658E+08, -1.576139701165324E+08, -1.425616260100130E+08,
2460280.500000000, A.D. 2023-Dec-02 00:00:00.0000, 4.583842641564757E+08, -1.486425364989824E+08, -1.426096071578870E+08,
2460287.500000000, A.D. 2023-Dec-09 00:00:00.0000, 4.616833229337997E+08, -1.396142212696044E+08, -1.426030204077950E+08,
2460294.500000000, A.D. 2023-Dec-16 00:00:00.0000, 4.648062113968592E+08, -1.305326134918812E+08, -1.425420073686568E+08,
2460301.500000000, A.D. 2023-Dec-23 00:00:00.0000, 4.677521832340055E+08, -1.214013021461260E+08, -1.424267271891043E+08,
2460308.500000000, A.D. 2023-Dec-30 00:00:00.0000, 4.705205556580904E+08, -1.122238735457554E+08, -1.422573562246617E+08,
2460315.500000000, A.D. 2024-Jan-06 00:00:00.0000, 4.731107068853198E+08, -1.030039095584533E+08, -1.420340875503202E+08,
2460322.500000000, A.D. 2024-Jan-13 00:00:00.0000, 4.755220743865522E+08, -9.374498843913285E+07, -1.417571307574033E+08,
2460329.500000000, A.D. 2024-Jan-20 00:00:00.0000, 4.777541551343041E+08, -8.445068518886419E+07, -1.414267118947521E+08,
2460336.500000000, A.D. 2024-Jan-27 00:00:00.0000, 4.798065058174863E+08, -7.512457078629892E+07, -1.410430733151633E+08,
2460343.500000000, A.D. 2024-Feb-03 00:00:00.0000, 4.816787425964666E+08, -6.577021123936342E+07, -1.406064734657791E+08,
2460350.500000000, A.D. 2024-Feb-10 00:00:00.0000, 4.833705406765751E+08, -5.639116674756748E+07, -1.401171866720381E+08,
2460357.500000000, A.D. 2024-Feb-17 00:00:00.0000, 4.848816338394059E+08, -4.699099096618240E+07, -1.395755029275613E+08,
2460364.500000000, A.D. 2024-Feb-24 00:00:00.0000, 4.862118139685083E+08, -3.757323035664483E+07, -1.389817276923405E+08,
2460371.500000000, A.D. 2024-Mar-02 00:00:00.0000, 4.873609305995242E+08, -2.814142365492192E+07, -1.383361817048540E+08,
2460378.500000000, A.D. 2024-Mar-09 00:00:00.0000, 4.883288906341450E+08, -1.869910152009445E+07, -1.376392008261977E+08,
2460385.500000000, A.D. 2024-Mar-16 00:00:00.0000, 4.891156586132054E+08, -9.249786165299319E+06, -1.368911359363194E+08,
2460392.500000000, A.D. 2024-Mar-23 00:00:00.0000, 4.897212574451659E+08, 2.030101393463537E+05, -1.360923527820151E+08,
2460399.500000000, A.D. 2024-Mar-30 00:00:00.0000, 4.901457673501925E+08, 9.655787666624978E+06, -1.352432315737357E+08,
2460406.500000000, A.D. 2024-Apr-06 00:00:00.0000, 4.903893232777591E+08, 1.910505956724312E+07, -1.343441666306519E+08,
2460413.500000000, A.D. 2024-Apr-13 00:00:00.0000, 4.904521143485354E+08, 2.854735077591215E+07, -1.333955663311142E+08,
2460420.500000000, A.D. 2024-Apr-20 00:00:00.0000, 4.903343843673340E+08, 3.797919816567753E+07, -1.323978530617508E+08,
2460427.500000000, A.D. 2024-Apr-27 00:00:00.0000, 4.900364318895482E+08, 4.739715138997146E+07, -1.313514630714216E+08,
2460434.500000000, A.D. 2024-May-04 00:00:00.0000, 4.895586099284721E+08, 5.679777371011318E+07, -1.302568462950861E+08,
2460441.500000000, A.D. 2024-May-11 00:00:00.0000, 4.889013255415033E+08, 6.617764270811090E+07, -1.291144661773982E+08,
2460448.500000000, A.D. 2024-May-18 00:00:00.0000, 4.880650393774771E+08, 7.553335090834740E+07, -1.279247995017343E+08,
2460455.500000000, A.D. 2024-May-25 00:00:00.0000, 4.870502652107963E+08, 8.486150630279756E+07, -1.266883362277595E+08,
2460462.500000000, A.D. 2024-Jun-01 00:00:00.0000, 4.858575695234619E+08, 9.415873272354425E+07, -1.254055793480495E+08,
2460469.500000000, A.D. 2024-Jun-08 00:00:00.0000, 4.844875713823504E+08, 1.034216700401092E+08, -1.240770447883716E+08,
2460476.500000000, A.D. 2024-Jun-15 00:00:00.0000, 4.829409430111334E+08, 1.126469747267356E+08, -1.227032613433139E+08,
2460483.500000000, A.D. 2024-Jun-22 00:00:00.0000, 4.812184100506108E+08, 1.218313219756913E+08, -1.212847704582052E+08,
2460490.500000000, A.D. 2024-Jun-29 00:00:00.0000, 4.793207493863577E+08, 1.309714075375909E+08, -1.198221258113459E+08,
2460497.500000000, A.D. 2024-Jul-06 00:00:00.0000, 4.772487871898934E+08, 1.400639468180109E+08, -1.183158931412530E+08,
2460504.500000000, A.D. 2024-Jul-13 00:00:00.0000, 4.750033991217785E+08, 1.491056740543794E+08, -1.167666502663258E+08,
2460511.500000000, A.D. 2024-Jul-20 00:00:00.0000, 4.725855107099358E+08, 1.580933427227276E+08, -1.151749870203420E+08,
2460518.500000000, A.D. 2024-Jul-27 00:00:00.0000, 4.699960972469823E+08, 1.670237262159396E+08, -1.135415051218728E+08,
2460525.500000000, A.D. 2024-Aug-03 00:00:00.0000, 4.672361834794837E+08, 1.758936184194865E+08, -1.118668180333013E+08,
2460532.500000000, A.D. 2024-Aug-10 00:00:00.0000, 4.643068432548091E+08, 1.846998341811402E+08, -1.101515508250830E+08,
2460539.500000000, A.D. 2024-Aug-17 00:00:00.0000, 4.612091991727946E+08, 1.934392096974434E+08, -1.083963400479285E+08,
2460546.500000000, A.D. 2024-Aug-24 00:00:00.0000, 4.579444222699777E+08, 2.021086027958452E+08, -1.066018336174663E+08,
2460553.500000000, A.D. 2024-Aug-31 00:00:00.0000, 4.545137318521180E+08, 2.107048930521774E+08, -1.047686907272778E+08,
2460560.500000000, A.D. 2024-Sep-07 00:00:00.0000, 4.509183958406627E+08, 2.192249818706589E+08, -1.028975818137833E+08,
2460567.500000000, A.D. 2024-Sep-14 00:00:00.0000, 4.471597317178261E+08, 2.276657935225358E+08, -1.009891884993828E+08,
2460574.500000000, A.D. 2024-Sep-21 00:00:00.0000, 4.432391060400685E+08, 2.360242775569541E+08, -9.904420329374848E+07,
2460581.500000000, A.D. 2024-Sep-28 00:00:00.0000, 4.391579320330298E+08, 2.442974093585313E+08, -9.706332927270228E+07,
2460588.500000000, A.D. 2024-Oct-05 00:00:00.0000, 4.349176689389113E+08, 2.524821888537001E+08, -9.504728007161695E+07,
2460595.500000000, A.D. 2024-Oct-12 00:00:00.0000, 4.305198227548983E+08, 2.605756403455098E+08, -9.299677991639133E+07,
2460602.500000000, A.D. 2024-Oct-19 00:00:00.0000, 4.259659466106233E+08, 2.685748132065543E+08, -9.091256355310626E+07,
2460609.500000000, A.D. 2024-Oct-26 00:00:00.0000, 4.212576407517424E+08, 2.764767826294174E+08, -8.879537613861267E+07,
2460616.500000000, A.D. 2024-Nov-02 00:00:00.0000, 4.163965523864757E+08, 2.842786502870575E+08, -8.664597312751999E+07,
2460623.500000000, A.D. 2024-Nov-09 00:00:00.0000, 4.113843754911696E+08, 2.919775449247980E+08, -8.446512016250271E+07,
2460630.500000000, A.D. 2024-Nov-16 00:00:00.0000, 4.062228506003172E+08, 2.995706228853947E+08, -8.225359297009510E+07,
2460637.500000000, A.D. 2024-Nov-23 00:00:00.0000, 4.009137646277552E+08, 3.070550685186989E+08, -8.001217727028611E+07,
2460644.500000000, A.D. 2024-Nov-30 00:00:00.0000, 3.954589509275901E+08, 3.144280944347616E+08, -7.774166872255382E+07,
2460651.500000000, A.D. 2024-Dec-07 00:00:00.0000, 3.898602900150091E+08, 3.216869420219274E+08, -7.544287291251674E+07,
2460658.500000000, A.D. 2024-Dec-14 00:00:00.0000, 3.841197102582514E+08, 3.288288834535195E+08, -7.311660521570490E+07,
2460665.500000000, A.D. 2024-Dec-21 00:00:00.0000, 3.782391862218453E+08, 3.358512239424121E+08, -7.076369042648211E+07,
2460672.500000000, A.D. 2024-Dec-28 00:00:00.0000, 3.722207366337447E+08, 3.427513012774495E+08, -6.838496257528877E+07,
2460679.500000000, A.D. 2025-Jan-04 00:00:00.0000, 3.660664245738632E+08, 3.495264850173912E+08, -6.598126497788896E+07,
2460686.500000000, A.D. 2025-Jan-11 00:00:00.0000, 3.597783580607930E+08, 3.561741770013617E+08, -6.355345021303409E+07,
2460693.500000000, A.D. 2025-Jan-18 00:00:00.0000, 3.533586901178932E+08, 3.626918122577548E+08, -6.110238001882932E+07,
2460700.500000000, A.D. 2025-Jan-25 00:00:00.0000, 3.468096185615255E+08, 3.690768598386034E+08, -5.862892516858222E+07,
2460707.500000000, A.D. 2025-Feb-01 00:00:00.0000, 3.401333857010624E+08, 3.753268235507189E+08, -5.613396534577765E+07,
2460714.500000000, A.D. 2025-Feb-08 00:00:00.0000, 3.333322780094595E+08, 3.814392426041744E+08, -5.361838902169579E+07,
$$EOE